STARLINK-35971          
1 66895U 25283T   26068.25341443  .00010934  00000+0  38083-3 0  9993
2 66895  53.1604  26.4589 0001180 122.6449 237.4666 15.30194115 15771
KUIPER-00209            
1 67776U 26030N   26068.61786546  .00035298  00000+0  11963-2 0  9997
2 67776  51.8838 220.0775 0012191  59.1967 301.0215 15.30161950  5077
